COMMENT,ORIGINATOR,NORAD_CAT_ID,OBJECT_NAME,OBJECT_TYPE,CLASSIFICATION_TYPE,INTLDES,EPOCH,EPOCH_MICROSECONDS,MEAN_MOTION,ECCENTRICITY,INCLINATION,RA_OF_ASC_NODE,ARG_OF_PERICENTER,MEAN_ANOMALY,EPHEMERIS_TYPE,ELEMENT_SET_NO,REV_AT_EPOCH,BSTAR,MEAN_MOTION_DOT,MEAN_MOTION_DDOT,FILE,TLE_LINE0,TLE_LINE1,TLE_LINE2,OBJECT_ID,OBJECT_NUMBER,SEMIMAJOR_AXIS,PERIOD,APOGEE,PERIGEE
GENERATED VIA SPACETRACK.ORG API,18 SPCS,41616,FLOCK 2P 5,PAYLOAD,U,16040T,1/25/2019 20:58,24576,15.25001134,0.001065,97.3924,93.2254,169.3798,190.7667,0,999,14415,4.79E-05,1.13E-05,0,2400444,0 FLOCK 2P 5,1 41616U 16040T   19025.87399334 +.00001125 +00000-0 +47921-4 0  9998,2 41616 097.3924 093.2254 0010650 169.3798 190.7667 15.25001134144157,2016-040T,41616,6868.919,94.426,498.099,483.468
GENERATED VIA SPACETRACK.ORG API,18 SPCS,41616,FLOCK 2P 5,PAYLOAD,U,16040T,1/25/2019 22:33,240928,15.25001281,0.0010657,97.3924,93.2902,169.158,190.989,0,999,14416,4.80E-05,1.13E-05,0,2400134,0 FLOCK 2P 5,1 41616U 16040T   19025.93960927  .00001126  00000-0  47957-4 0  9997,2 41616  97.3924  93.2902 0010657 169.1580 190.9890 15.25001281144165,2016-040T,41616,6868.918,94.426,498.103,483.463
GENERATED VIA SPACETRACK.ORG API,18 SPCS,41616,FLOCK 2P 5,PAYLOAD,U,16040T,1/26/2019 11:08,972608,15.25002238,0.0010719,97.3924,93.8085,167.3737,192.7771,0,999,14424,4.68E-05,1.10E-05,0,2400611,0 FLOCK 2P 5,1 41616U 16040T   19026.46453672 +.00001097 +00000-0 +46799-4 0  9990,2 41616 097.3924 093.8085 0010719 167.3737 192.7771 15.25002238144246,2016-040T,41616,6868.915,94.426,498.143,483.417
GENERATED VIA SPACETRACK.ORG API,18 SPCS,41616,FLOCK 2P 5,PAYLOAD,U,16040T,1/26/2019 22:10,369568,15.25004194,0.0010752,97.3923,94.262,165.8899,194.2641,0,999,14431,5.15E-05,1.22E-05,0,2400944,0 FLOCK 2P 5,1 41616U 16040T   19026.92384687 +.00001215 +00000-0 +51519-4 0  9998,2 41616 097.3923 094.2620 0010752 165.8899 194.2641 15.25004194144318,2016-040T,41616,6868.909,94.425,498.16,483.389
GENERATED VIA SPACETRACK.ORG API,18 SPCS,41616,FLOCK 2P 5,PAYLOAD,U,16040T,1/27/2019 2:53,967648,15.25004851,0.0010771,97.3922,94.4563,165.2756,194.8798,0,999,14434,5.23E-05,1.24E-05,0,2400776,0 FLOCK 2P 5,1 41616U 16040T   19027.12069407  .00001235  00000-0  52299-4 0  9999,2 41616  97.3922  94.4563 0010771 165.2756 194.8798 15.25004851144344,2016-040T,41616,6868.907,94.425,498.171,483.374
GENERATED VIA SPACETRACK.ORG API,18 SPCS,41616,FLOCK 2P 5,PAYLOAD,U,16040T,1/27/2019 10:46,21760,15.25005049,0.0010798,97.3922,94.7803,164.1867,195.971,0,999,14439,4.88E-05,1.15E-05,0,2401078,0 FLOCK 2P 5,1 41616U 16040T   19027.44877340 +.00001147 +00000-0 +48780-4 0  9999,2 41616 097.3922 094.7803 0010798 164.1867 195.9710 15.25005049144395,2016-040T,41616,6868.907,94.425,498.189,483.355
GENERATED VIA SPACETRACK.ORG API,18 SPCS,41616,FLOCK 2P 5,PAYLOAD,U,16040T,1/27/2019 20:13,195456,15.25006228,0.001083,97.3921,95.169,162.8862,197.2743,0,999,14445,4.95E-05,1.17E-05,0,2401276,0 FLOCK 2P 5,1 41616U 16040T   19027.84246754 +.00001165 +00000-0 +49482-4 0  9992,2 41616 097.3921 095.1690 0010830 162.8862 197.2743 15.25006228144458,2016-040T,41616,6868.903,94.425,498.207,483.329
GENERATED VIA SPACETRACK.ORG API,18 SPCS,41616,FLOCK 2P 5,PAYLOAD,U,16040T,1/28/2019 10:23,956864,15.25007501,0.001089,97.3921,95.752,160.9381,199.2266,0,999,14454,4.80E-05,1.13E-05,0,2401441,0 FLOCK 2P 5,1 41616U 16040T   19028.43300876 +.00001127 +00000-0 +47972-4 0  9994,2 41616 097.3921 095.7520 0010890 160.9381 199.2266 15.25007501144544,2016-040T,41616,6868.899,94.425,498.245,483.284
GENERATED VIA SPACETRACK.ORG API,18 SPCS,41616,FLOCK 2P 5,PAYLOAD,U,16040T,1/28/2019 21:24,296800,15.25008366,0.0010927,97.392,96.2055,159.4106,200.7574,0,999,14461,4.60E-05,1.08E-05,0,2401768,0 FLOCK 2P 5,1 41616U 16040T   19028.89231825 +.00001078 +00000-0 +46012-4 0  9990,2 41616 097.3920 096.2055 0010927 159.4106 200.7574 15.25008366144619,2016-040T,41616,6868.897,94.425,498.267,483.256
GENERATED VIA SPACETRACK.ORG API,18 SPCS,41616,FLOCK 2P 5,PAYLOAD,U,16040T,1/29/2019 5:17,239456,15.25008871,0.0010946,97.392,96.5295,158.3768,201.7934,0,999,14466,4.36E-05,1.02E-05,0,2401578,0 FLOCK 2P 5,1 41616U 16040T   19029.22039629  .00001019  00000-0  43632-4 0  9996,2 41616  97.3920  96.5295 0010946 158.3768 201.7934 15.25008871144668,2016-040T,41616,6868.895,94.425,498.279,483.242
GENERATED VIA SPACETRACK.ORG API,18 SPCS,41616,FLOCK 2P 5,PAYLOAD,U,16040T,1/29/2019 19:27,923104,15.25010131,0.0011007,97.3919,97.1126,156.3877,203.7868,0,999,14475,4.34E-05,1.01E-05,0,2402060,0 FLOCK 2P 5,1 41616U 16040T   19029.81093661 +.00001013 +00000-0 +43392-4 0  9994,2 41616 097.3919 097.1126 0011007 156.3877 203.7868 15.25010131144754,2016-040T,41616,6868.892,94.425,498.317,483.196
GENERATED VIA SPACETRACK.ORG API,18 SPCS,41616,FLOCK 2P 5,PAYLOAD,U,16040T,1/30/2019 15:56,258752,15.25012156,0.001109,97.3918,97.9547,153.5951,206.5854,0,999,14488,4.40E-05,1.03E-05,0,2402389,0 FLOCK 2P 5,1 41616U 16040T   19030.66393818  .00001029  00000-0  44045-4 0  9999,2 41616  97.3918  97.9547 0011090 153.5951 206.5854 15.25012156144881,2016-040T,41616,6868.885,94.425,498.368,483.133
GENERATED VIA SPACETRACK.ORG API,18 SPCS,41616,FLOCK 2P 5,PAYLOAD,U,16040T,1/31/2019 15:33,799008,15.25015009,0.0011171,97.3916,98.9264,150.4544,209.7328,0,999,14503,4.82E-05,1.13E-05,0,2402946,0 FLOCK 2P 5,1 41616U 16040T   19031.64816897 +.00001133 +00000-0 +48202-4 0  9990,2 41616 097.3916 098.9264 0011171 150.4544 209.7328 15.25015009145039,2016-040T,41616,6868.877,94.425,498.415,483.069
GENERATED VIA SPACETRACK.ORG API,18 SPCS,41616,FLOCK 2P 5,PAYLOAD,U,16040T,2/1/2019 4:09,34752,15.25017212,0.0011202,97.3915,99.4447,148.7629,211.4276,0,999,14511,5.37E-05,1.27E-05,0,2403115,0 FLOCK 2P 5,1 41616U 16040T   19032.17309068  .00001272  00000-0  53743-4 0  9996,2 41616  97.3915  99.4447 0011202 148.7629 211.4276 15.25017212145115,2016-040T,41616,6868.87,94.425,498.43,483.041
GENERATED VIA SPACETRACK.ORG API,18 SPCS,41616,FLOCK 2P 5,PAYLOAD,U,16040T,2/1/2019 21:28,737248,15.25019291,0.0011256,97.3915,100.1573,146.4764,213.7188,0,999,14522,5.65E-05,1.34E-05,0,2403574,0 FLOCK 2P 5,1 41616U 16040T   19032.89485807 +.00001341 +00000-0 +56534-4 0  9999,2 41616 097.3915 100.1573 0011256 146.4764 213.7188 15.25019291145227,2016-040T,41616,6868.864,94.425,498.461,482.997
GENERATED VIA SPACETRACK.ORG API,18 SPCS,41616,FLOCK 2P 5,PAYLOAD,U,16040T,2/2/2019 10:04,872768,15.25021563,0.0011299,97.3914,100.6755,144.7926,215.4061,0,999,14530,6.25E-05,1.49E-05,0,2403870,0 FLOCK 2P 5,1 41616U 16040T   19033.41977862  .00001492  00000-0  62532-4 0  9997,2 41616  97.3914 100.6755 0011299 144.7926 215.4061 15.25021563145304,2016-040T,41616,6868.857,94.424,498.483,482.961
GENERATED VIA SPACETRACK.ORG API,18 SPCS,41616,FLOCK 2P 5,PAYLOAD,U,16040T,2/2/2019 22:40,982368,15.25023223,0.0011342,97.3912,101.1938,143.1494,217.0525,0,999,14538,6.44E-05,1.54E-05,0,2404086,0 FLOCK 2P 5,1 41616U 16040T   19033.94469887 +.00001539 +00000-0 +64424-4 0  9992,2 41616 097.3912 101.1938 0011342 143.1494 217.0525 15.25023223145389,2016-040T,41616,6868.852,94.424,498.508,482.927
GENERATED VIA SPACETRACK.ORG API,18 SPCS,41616,FLOCK 2P 5,PAYLOAD,U,16040T,2/3/2019 11:16,38400,15.25025125,0.0011377,97.3912,101.712,141.4679,218.7374,0,999,14546,6.73E-05,1.61E-05,0,2404382,0 FLOCK 2P 5,1 41616U 16040T   19034.46961850  .00001610  00000-0  67262-4 0  9990,2 41616  97.3912 101.7120 0011377 141.4679 218.7374 15.25025125145464,2016-040T,41616,6868.846,94.424,498.526,482.897
GENERATED VIA SPACETRACK.ORG API,18 SPCS,41616,FLOCK 2P 5,PAYLOAD,U,16040T,2/3/2019 20:43,814656,15.25026048,0.0011402,97.391,102.1007,140.2452,219.9623,0,999,14552,6.59E-05,1.58E-05,0,2404612,0 FLOCK 2P 5,1 41616U 16040T   19034.86330804 +.00001576 +00000-0 +65885-4 0  9993,2 41616 097.3910 102.1007 0011402 140.2452 219.9623 15.25026048145528,2016-040T,41616,6868.844,94.424,498.541,482.877
GENERATED VIA SPACETRACK.ORG API,18 SPCS,41616,FLOCK 2P 5,PAYLOAD,U,16040T,2/4/2019 17:11,423680,15.25027705,0.0011452,97.3908,102.9428,137.6205,222.592,0,999,14565,5.99E-05,1.43E-05,0,2405099,0 FLOCK 2P 5,1 41616U 16040T   19035.71630120  .00001426  00000-0  59904-4 0  9991,2 41616  97.3908 102.9428 0011452 137.6205 222.5920 15.25027705145656,2016-040T,41616,6868.839,94.424,498.57,482.838
GENERATED VIA SPACETRACK.ORG API,18 SPCS,41616,FLOCK 2P 5,PAYLOAD,U,16040T,2/4/2019 21:54,766880,15.25028235,0.0011475,97.3908,103.1371,137.0375,223.1761,0,999,14568,5.94E-05,1.42E-05,0,2405157,0 FLOCK 2P 5,1 41616U 16040T   19035.91314545 +.00001415 +00000-0 +59444-4 0  9990,2 41616 097.3908 103.1371 0011475 137.0375 223.1761 15.25028235145685,2016-040T,41616,6868.837,94.424,498.584,482.82
GENERATED VIA SPACETRACK.ORG API,18 SPCS,41616,FLOCK 2P 5,PAYLOAD,U,16040T,2/5/2019 4:12,213248,15.25028886,0.0011483,97.3907,103.3961,136.2354,223.9796,0,999,14572,5.80E-05,1.38E-05,0,2405616,0 FLOCK 2P 5,1 41616U 16040T   19036.17560432 +.00001378 +00000-0 +57962-4 0  9998,2 41616 097.3907 103.3961 0011483 136.2354 223.9796 15.25028886145721,2016-040T,41616,6868.835,94.424,498.588,482.813
GENERATED VIA SPACETRACK.ORG API,18 SPCS,41616,FLOCK 2P 5,PAYLOAD,U,16040T,2/6/2019 3:50,816928,15.25030977,0.001156,97.3905,104.3678,133.1337,227.0869,0,999,14587,5.14E-05,1.21E-05,0,2405770,0 FLOCK 2P 5,1 41616U 16040T   19037.15982427  .00001213  00000-0  51358-4 0  9990,2 41616  97.3905 104.3678 0011560 133.1337 227.0869 15.25030977145874,2016-040T,41616,6868.829,94.424,498.634,482.754
GENERATED VIA SPACETRACK.ORG API,18 SPCS,41616,FLOCK 2P 5,PAYLOAD,U,16040T,2/6/2019 22:43,958176,15.25033566,0.001161,97.3903,105.1449,130.6666,229.5583,0,999,14599,5.29E-05,1.25E-05,0,2406149,0 FLOCK 2P 5,1 41616U 16040T   19037.94719859 +.00001251 +00000-0 +52901-4 0  9991,2 41616 097.3903 105.1449 0011610 130.6666 229.5583 15.25033566145990,2016-040T,41616,6868.821,94.424,498.661,482.711
